ONEWEB-0512             
1 54130U 22138T   24162.52074587  .00000112  00000+0  24718-3 0  9990
2 54130  87.9157  91.5769 0002497  89.8176 270.3242 13.19724861 80516
ONEWEB-0513             
1 54131U 22138U   24162.18823199 -.00000261  00000+0 -68522-3 0  9992
2 54131  87.9154  91.6379 0002395  94.6508 265.4898 13.19726343 80353
ONEWEB-0514             
1 54132U 22138V   24162.23326857  .00000087  00000+0  18425-3 0  9999
2 54132  87.9150  91.6249 0002024  81.8322 278.3041 13.19724596 80493
ONEWEB-0515             
1 54133U 22138W   24162.23254586 -.00000275  00000+0 -70800-3 0  9995
2 54133  87.9218  61.0384 0002051  48.7116 311.4194 13.20772925 82898
ONEWEB-0516             
1 54134U 22138X   24162.51125862  .00000100  00000+0  21717-3 0  9999
2 54134  87.9156  91.5801 0002229  80.2678 279.8707 13.19729292 80536
ONEWEB-0517             
1 54135U 22138Y   24161.88418721  .00000073  00000+0  14978-3 0  9998
2 54135  87.9149  91.6905 0001764  91.9213 268.2122 13.19723937 79588
ONEWEB-0518             
1 54136U 22138Z   24162.50967672  .00000104  00000+0  22865-3 0  9992
2 54136  87.9157  91.5787 0002028  83.6046 276.5317 13.19724245 80539
ONEWEB-0519             
1 54137U 22138AA  24162.23167891  .00000108  00000+0  23804-3 0  9996
2 54137  87.9149  91.6170 0002245  91.9497 268.1893 13.19723888 80506
